CCSDS_OMM_VERS = 2.0
CREATION_DATE  = 
ORIGINATOR     = 

OBJECT_NAME    = SL-14 R/B
OBJECT_ID      = 1991-042B
CENTER_NAME    = EARTH
REF_FRAME      = TEME
TIME_SYSTEM    = UTC
MEAN_ELEMENT_THEORY = SGP/SGP4

EPOCH          = 2026-02-18T13:55:37.009344
MEAN_MOTION    = 14.81809297
ECCENTRICITY   = .00158143
INCLINATION    = 82.4897
RA_OF_ASC_NODE = 238.1051
ARG_OF_PERICENTER = 307.1193
MEAN_ANOMALY   = 52.8575

EPHEMERIS_TYPE = 0
CLASSIFICATION_TYPE = U
NORAD_CAT_ID   = 21423
ELEMENT_SET_NO = 999
REV_AT_EPOCH   = 85024
BSTAR          = .45310448E-4
MEAN_MOTION_DOT = .381E-5
MEAN_MOTION_DDOT = 0

CCSDS_OMM_VERS = 2.0
CREATION_DATE  = 
ORIGINATOR     = 

OBJECT_NAME    = ERS-1
OBJECT_ID      = 1991-050A
CENTER_NAME    = EARTH
REF_FRAME      = TEME
TIME_SYSTEM    = UTC
MEAN_ELEMENT_THEORY = SGP/SGP4

EPOCH          = 2026-02-18T13:57:39.531456
MEAN_MOTION    = 14.39433338
ECCENTRICITY   = .00308914
INCLINATION    = 98.7893
RA_OF_ASC_NODE = 67.3357
ARG_OF_PERICENTER = 258.5654
MEAN_ANOMALY   = 101.2063

EPHEMERIS_TYPE = 0
CLASSIFICATION_TYPE = U
NORAD_CAT_ID   = 21574
ELEMENT_SET_NO = 999
REV_AT_EPOCH   = 81298
BSTAR          = .10634443E-3
MEAN_MOTION_DOT = .286E-5
MEAN_MOTION_DDOT = 0

CCSDS_OMM_VERS = 2.0
CREATION_DATE  = 
ORIGINATOR     = 

OBJECT_NAME    = ARIANE 40 R/B
OBJECT_ID      = 1991-050F
CENTER_NAME    = EARTH
REF_FRAME      = TEME
TIME_SYSTEM    = UTC
MEAN_ELEMENT_THEORY = SGP/SGP4

EPOCH          = 2026-02-18T14:36:36.523584
MEAN_MOTION    = 14.42878907
ECCENTRICITY   = .00042049
INCLINATION    = 98.2055
RA_OF_ASC_NODE = 102.5575
ARG_OF_PERICENTER = 122.9297
MEAN_ANOMALY   = 237.2299

EPHEMERIS_TYPE = 0
CLASSIFICATION_TYPE = U
NORAD_CAT_ID   = 21610
ELEMENT_SET_NO = 999
REV_AT_EPOCH   = 81624
BSTAR          = .93236915E-4
MEAN_MOTION_DOT = .27E-5
MEAN_MOTION_DDOT = 0

CCSDS_OMM_VERS = 2.0
CREATION_DATE  = 
ORIGINATOR     = 

OBJECT_NAME    = INTERCOSMOS 25
OBJECT_ID      = 1991-086A
CENTER_NAME    = EARTH
REF_FRAME      = TEME
TIME_SYSTEM    = UTC
MEAN_ELEMENT_THEORY = SGP/SGP4

EPOCH          = 2026-02-18T06:08:50.505504
MEAN_MOTION    = 12.11944023
ECCENTRICITY   = .1487001
INCLINATION    = 82.6084
RA_OF_ASC_NODE = 321.7515
ARG_OF_PERICENTER = 158.7958
MEAN_ANOMALY   = 208.2051

EPHEMERIS_TYPE = 0
CLASSIFICATION_TYPE = U
NORAD_CAT_ID   = 21819
ELEMENT_SET_NO = 999
REV_AT_EPOCH   = 49433
BSTAR          = .17933412E-3
MEAN_MOTION_DOT = .941E-5
MEAN_MOTION_DDOT = 0

CCSDS_OMM_VERS = 2.0
CREATION_DATE  = 
ORIGINATOR     = 

OBJECT_NAME    = SL-8 R/B
OBJECT_ID      = 1992-008B
CENTER_NAME    = EARTH
REF_FRAME      = TEME
TIME_SYSTEM    = UTC
MEAN_ELEMENT_THEORY = SGP/SGP4

EPOCH          = 2026-02-18T14:19:59.935008
MEAN_MOTION    = 13.75970129
ECCENTRICITY   = .00344496
INCLINATION    = 82.9248
RA_OF_ASC_NODE = 281.9832
ARG_OF_PERICENTER = 185.9095
MEAN_ANOMALY   = 235.1598

EPHEMERIS_TYPE = 0
CLASSIFICATION_TYPE = U
NORAD_CAT_ID   = 21876
ELEMENT_SET_NO = 999
REV_AT_EPOCH   = 70679
BSTAR          = .38933157E-4
MEAN_MOTION_DOT = .53E-6
MEAN_MOTION_DDOT = 0

CCSDS_OMM_VERS = 2.0
CREATION_DATE  = 
ORIGINATOR     = 

OBJECT_NAME    = SL-8 R/B
OBJECT_ID      = 1992-020B
CENTER_NAME    = EARTH
REF_FRAME      = TEME
TIME_SYSTEM    = UTC
MEAN_ELEMENT_THEORY = SGP/SGP4

EPOCH          = 2026-02-18T10:00:02.449728
MEAN_MOTION    = 13.75546847
ECCENTRICITY   = .00286252
INCLINATION    = 82.9339
RA_OF_ASC_NODE = 168.0662
ARG_OF_PERICENTER = 354.2397
MEAN_ANOMALY   = 68.7967

EPHEMERIS_TYPE = 0
CLASSIFICATION_TYPE = U
NORAD_CAT_ID   = 21938
ELEMENT_SET_NO = 999
REV_AT_EPOCH   = 69848
BSTAR          = .76815822E-4
MEAN_MOTION_DOT = .89E-6
MEAN_MOTION_DDOT = 0

CCSDS_OMM_VERS = 2.0
CREATION_DATE  = 
ORIGINATOR     = 

OBJECT_NAME    = USA 81
OBJECT_ID      = 1992-023A
CENTER_NAME    = EARTH
REF_FRAME      = TEME
TIME_SYSTEM    = UTC
MEAN_ELEMENT_THEORY = SGP/SGP4

EPOCH          = 2026-02-18T05:43:09.865632
MEAN_MOTION    = 14.32360777
ECCENTRICITY   = .00027386
INCLINATION    = 85.0116
RA_OF_ASC_NODE = 142.6583
ARG_OF_PERICENTER = 95.2444
MEAN_ANOMALY   = 264.9061

EPHEMERIS_TYPE = 0
CLASSIFICATION_TYPE = U
NORAD_CAT_ID   = 21949
ELEMENT_SET_NO = 999
REV_AT_EPOCH   = 9200
BSTAR          = .65801154E-4
MEAN_MOTION_DOT = .198E-5
MEAN_MOTION_DDOT = 0

CCSDS_OMM_VERS = 2.0
CREATION_DATE  = 
ORIGINATOR     = 

OBJECT_NAME    = COSMOS 2219
OBJECT_ID      = 1992-076A
CENTER_NAME    = EARTH
REF_FRAME      = TEME
TIME_SYSTEM    = UTC
MEAN_ELEMENT_THEORY = SGP/SGP4

EPOCH          = 2026-02-18T10:07:10.582464
MEAN_MOTION    = 14.14079168
ECCENTRICITY   = .00199029
INCLINATION    = 71.0585
RA_OF_ASC_NODE = 58.3484
ARG_OF_PERICENTER = 232.9567
MEAN_ANOMALY   = 126.9735

EPHEMERIS_TYPE = 0
CLASSIFICATION_TYPE = U
NORAD_CAT_ID   = 22219
ELEMENT_SET_NO = 999
REV_AT_EPOCH   = 71565
BSTAR          = .15014573E-3
MEAN_MOTION_DOT = .239E-5
MEAN_MOTION_DDOT = 0

CCSDS_OMM_VERS = 2.0
CREATION_DATE  = 
ORIGINATOR     = 

OBJECT_NAME    = SL-16 R/B
OBJECT_ID      = 1992-076B
CENTER_NAME    = EARTH
REF_FRAME      = TEME
TIME_SYSTEM    = UTC
MEAN_ELEMENT_THEORY = SGP/SGP4

EPOCH          = 2026-02-18T15:16:39.954720
MEAN_MOTION    = 14.16854732
ECCENTRICITY   = .00111588
INCLINATION    = 70.9975
RA_OF_ASC_NODE = 228.5076
ARG_OF_PERICENTER = 131.2031
MEAN_ANOMALY   = 299.8671

EPHEMERIS_TYPE = 0
CLASSIFICATION_TYPE = U
NORAD_CAT_ID   = 22220
ELEMENT_SET_NO = 999
REV_AT_EPOCH   = 71913
BSTAR          = -.3261603E-4
MEAN_MOTION_DOT = -.113E-5
MEAN_MOTION_DDOT = 0

CCSDS_OMM_VERS = 2.0
CREATION_DATE  = 
ORIGINATOR     = 

OBJECT_NAME    = COSMOS 2221
OBJECT_ID      = 1992-080A
CENTER_NAME    = EARTH
REF_FRAME      = TEME
TIME_SYSTEM    = UTC
MEAN_ELEMENT_THEORY = SGP/SGP4

EPOCH          = 2026-02-18T04:12:33.953472
MEAN_MOTION    = 14.96122520
ECCENTRICITY   = .00128168
INCLINATION    = 82.5042
RA_OF_ASC_NODE = 297.7723
ARG_OF_PERICENTER = 258.1083
MEAN_ANOMALY   = 101.8702

EPHEMERIS_TYPE = 0
CLASSIFICATION_TYPE = U
NORAD_CAT_ID   = 22236
ELEMENT_SET_NO = 999
REV_AT_EPOCH   = 77787
BSTAR          = .15983666E-3
MEAN_MOTION_DOT = .1826E-4
MEAN_MOTION_DDOT = 0

CCSDS_OMM_VERS = 2.0
CREATION_DATE  = 
ORIGINATOR     = 

OBJECT_NAME    = SL-16 R/B
OBJECT_ID      = 1992-093B
CENTER_NAME    = EARTH
REF_FRAME      = TEME
TIME_SYSTEM    = UTC
MEAN_ELEMENT_THEORY = SGP/SGP4

EPOCH          = 2026-02-18T10:43:02.830656
MEAN_MOTION    = 14.15444919
ECCENTRICITY   = .00055347
INCLINATION    = 71.0211
RA_OF_ASC_NODE = 44.6620
ARG_OF_PERICENTER = 314.4184
MEAN_ANOMALY   = 45.6486

EPHEMERIS_TYPE = 0
CLASSIFICATION_TYPE = U
NORAD_CAT_ID   = 22285
ELEMENT_SET_NO = 999
REV_AT_EPOCH   = 71043
BSTAR          = .18443949E-3
MEAN_MOTION_DOT = .313E-5
MEAN_MOTION_DDOT = 0

CCSDS_OMM_VERS = 2.0
CREATION_DATE  = 
ORIGINATOR     = 

OBJECT_NAME    = COSMOS 2228
OBJECT_ID      = 1992-094A
CENTER_NAME    = EARTH
REF_FRAME      = TEME
TIME_SYSTEM    = UTC
MEAN_ELEMENT_THEORY = SGP/SGP4

EPOCH          = 2026-02-18T14:32:01.464864
MEAN_MOTION    = 14.97094852
ECCENTRICITY   = .00183129
INCLINATION    = 82.5146
RA_OF_ASC_NODE = 255.5862
ARG_OF_PERICENTER = 10.7937
MEAN_ANOMALY   = 349.3674

EPHEMERIS_TYPE = 0
CLASSIFICATION_TYPE = U
NORAD_CAT_ID   = 22286
ELEMENT_SET_NO = 999
REV_AT_EPOCH   = 77320
BSTAR          = .15307932E-3
MEAN_MOTION_DOT = .1797E-4
MEAN_MOTION_DDOT = 0

