SL-14 R/B               
1 21423U 91042B   26049.58028946  .00000381  00000+0  45310-4 0  9999
2 21423  82.4897 238.1051 0015814 307.1193  52.8575 14.81809297850245
ERS-1                   
1 21574U 91050A   26049.58170754  .00000286  00000+0  10634-3 0  9994
2 21574  98.7893  67.3357 0030891 258.5654 101.2063 14.39433338812984
ARIANE 40 R/B           
1 21610U 91050F   26049.60875606  .00000270  00000+0  93237-4 0  9990
2 21610  98.2055 102.5575 0004204 122.9297 237.2299 14.42878907816243
INTERCOSMOS 25          
1 21819U 91086A   26049.25614011  .00000941  00000+0  17933-3 0  9995
2 21819  82.6084 321.7515 1487001 158.7958 208.2051 12.11944023494337
SL-8 R/B                
1 21876U 92008B   26049.59722147  .00000053  00000+0  38933-4 0  9998
2 21876  82.9248 281.9832 0034449 185.9095 235.1598 13.75970129706799
SL-8 R/B                
1 21938U 92020B   26049.41669502  .00000089  00000+0  76816-4 0  9998
2 21938  82.9339 168.0662 0028625 354.2397  68.7967 13.75546847698482
USA 81                  
1 21949U 92023A   26049.23830863  .00000198  00000+0  65801-4 0  9996
2 21949  85.0116 142.6583 0002738  95.2444 264.9061 14.32360777 92004
COSMOS 2219             
1 22219U 92076A   26049.42165026  .00000239  00000+0  15015-3 0  9995
2 22219  71.0585  58.3484 0019902 232.9567 126.9735 14.14079168715659
SL-16 R/B               
1 22220U 92076B   26049.63657355 -.00000113  00000+0 -32616-4 0  9991
2 22220  70.9975 228.5076 0011158 131.2031 299.8671 14.16854732719138
COSMOS 2221             
1 22236U 92080A   26049.17539298  .00001826  00000+0  15984-3 0  9995
2 22236  82.5042 297.7723 0012816 258.1083 101.8702 14.96122520777877
SL-16 R/B               
1 22285U 92093B   26049.44656054  .00000313  00000+0  18444-3 0  9997
2 22285  71.0211  44.6620 0005534 314.4184  45.6486 14.15444919710437
COSMOS 2228             
1 22286U 92094A   26049.60557251  .00001797  00000+0  15308-3 0  9999
2 22286  82.5146 255.5862 0018312  10.7937 349.3674 14.97094852773207
